# Made by eph2tle, compiled Dec 20 2022 11:38:57
# Run at Tue Dec 20 22:26:05 2022
#
#    The following TLEs (Two-Line Elements) were generated by fitting
# a numerically-integrated ephemeris,  based on the orbit given below,
# to the SDP4/SGP4 models.  Each TLE is good for the interval between
# its epoch and the epoch of the subsequent TLE (usually one day).
# The maximum deviation between the numerically integrated ephemerides
# and the TLE-based ephemeris, in kilometers,  is given for each TLE
# as the "worst residual".
#
#    This fitting is done using the 'eph2tle' code packaged with Find_Orb.
# The code has details on how the TLEs were computed :
#
#    https://github.com/Bill-Gray/find_orb/eph2tle.cpp
#
#    Be warned:  the error given is that between the numerically
# integrated ephems and the TLE model.  There will usually be at
# least some additional difference between the ephems and the actual
# motion of the satellite,  especially if the ephemerides are based
# on a short arc.  If the following orbital elements say something
# like "[based on] 10 observations 2015 Jan. 1-13",  and the TLEs
# are for 2015 May,  the extrapolation may be tenuous at best.  If
# your application requires a specific level of accuracy,  you may
# want to contact me;  I can give you some idea as to the fit of the
# underlying data (and possibly TLEs based on newer data).
#
#   You can usually find the underlying observational data,  and the
# fitted orbit,  residuals,  ephemerides,  and sometimes some comments
# about the object,  among the pages listed at
#
#    https://www.projectpluto.com/pluto/mpecs/pseudo.htm
#
#    WARNING:  for this object,  "normal" TLEs cannot be fitted.  (This
# usually means an object with an hyperbolic or nearly-parabolic orbit.)
# For this and similar cases,   an alternative model is used,  in which
# most of the traditional TLE data is replaced by six signed 8-digit hex
# numbers.  These six numbers are a state vector,  numerically integrated
# using a simplified force model.  This is necessary for objects at L2 or
# L1,  and sometimes for objects in high orbits where the SDP4/SGP4 model
# fails.  Some documentation is in 'get_el.cpp' in the source code at
# https://www.github.com/Bill-Gray/sat_code ; look for 'hex' in that file,
# with the actual integration done in 'sdp4.cpp'.  But be aware:  it's my
# own extension,  doesn't work with other code,  and is therefore used
# only when necessary.
#
#    Also,  if you use a TLE outside the "correct" time range (between
# its MJD and that of the next TLE),  all bets are off.  I've carefully
# computed and minimized the worst error over the "correct" time frame,
# but the ephemeris may (or may not) diverge wildly outside of it.
#
# Ephem range: 59945.000000 60310.000000 1.000000
# Created Tue Dec 20 22:26:00 2022
# Ephemeris start:  1 Jan 2023  0:00:00
# Ephemeris end:    1 Jan 2024  0:00:00
# Times are all TDT
# Positions/velocities are in equatorial J2000
# Orbital elements:  Chang'e 5 = 2020-087A = NORAD 47097
#    Perigee 2022 Oct 3.4014681 +/- 7.21e-5 TT =  9:38:06.84 (JD 2459855.9014681)
# Epoch 2022 Oct  7.0 TT; AMR 0.016388 +/- 0.000224 m^2/kg         Find_Orb
# M  39.8895073118 +/- 0.0012         (J2000 equator)
# n  11.0849390938 +/- 0.000135       Peri.  271.0077071 +/- 0.0012
# a429979.71287 +/- 3.5               Node     5.5597971 +/- 0.000057
# e   0.373185091 +/- 3.25e-6         Incl.   27.0160238 +/- 0.000058
# P  32.48d                  H 28.54  G  0.15   U  6.8
# q 269517.69459 +/- 0.814    Q 590441.73116 +/- 6.2
# 25 of 186 observations 2022 Sept. 6-Nov. 6; mean residual 0".683
#
# 1 NoradU COSPAR   Epoch.epoch     dn/dt/2  d2n/dt2/6 BSTAR    T El# C
# 2 NoradU Inclina RAAscNode Eccent  ArgPeri MeanAno  MeanMotion Rev# C

# Worst residual: 58.48 km
# MJD 59945.000000 (2023 Jan  1  0:00)
Chang'e 5 = 2020-087A = NORAD 47097
1 47097U 20087A   22365.99919926 +006QU4SU +003GHDJM +001ELI6PH 18163
2 47097                          -0002K4FX +000339RA +0001ND00     02

# Worst residual: 20.00 km
# MJD 59946.000000 (2023 Jan  2  0:00)
Chang'e 5 = 2020-087A = NORAD 47097
1 47097U 20087A   23001.99919926 +005ZMQ34 +00454A53 +001S0E7BH 18162
2 47097                          -0003Q3MJ +0002LOLT +0001GAAB     09

# Worst residual: 14.50 km
# MJD 59947.000000 (2023 Jan  3  0:00)
Chang'e 5 = 2020-087A = NORAD 47097
1 47097U 20087A   23002.99919926 +004YQ3SZ +004P5YBA +0023KDO4H 18167
2 47097                          -0004SWOU +00020JB5 +00017LZD     09

# Worst residual: 21.64 km
# MJD 59948.000000 (2023 Jan  4  0:00)
Chang'e 5 = 2020-087A = NORAD 47097
1 47097U 20087A   23003.99919926 +003OWH49 +0053FROR +002CP96CH 18164
2 47097                          -0005SBYR +000196GP +0000VWYA     01

# Worst residual: 29.82 km
# MJD 59949.000000 (2023 Jan  5  0:00)
Chang'e 5 = 2020-087A = NORAD 47097
1 47097U 20087A   23004.99919926 +00273JNX +005A7499 +002IK6LQH 18168
2 47097                          -0006N02X +00009P4E +0000G6LL     07

# Worst residual: 28.76 km
# MJD 59950.000000 (2023 Jan  6  0:00)
Chang'e 5 = 2020-087A = NORAD 47097
1 47097U 20087A   23005.99919926 +000IVA4D +0057F5OJ +002K4OH5H 18167
2 47097                          -00078Y31 -0000Y0PI -00003PO8     02

# Worst residual: 33.41 km
# MJD 59951.000000 (2023 Jan  7  0:00)
Chang'e 5 = 2020-087A = NORAD 47097
1 47097U 20087A   23006.99919926 -0018VDFE +004TKOAN +002GM3Y9H 18164
2 47097                          -0007EQB8 -000295XS -0000PK2S     05

# Worst residual: 22.15 km
# MJD 59952.000000 (2023 Jan  8  0:00)
Chang'e 5 = 2020-087A = NORAD 47097
1 47097U 20087A   23007.99919926 -002Z5DJT +0044ZVHM +00281UOOH 18164
2 47097                          -0006VS37 -0003DUCZ -000195X3     09

# Worst residual: 14.06 km
# MJD 59953.000000 (2023 Jan  9  0:00)
Chang'e 5 = 2020-087A = NORAD 47097
1 47097U 20087A   23008.99919926 -004I0EYX +003838Q0 +001VA8FXH 18164
2 47097                          -0005QUZZ -000465UE -0001OEQB     03

# Worst residual: 10.89 km
# MJD 59954.000000 (2023 Jan 10  0:00)
Chang'e 5 = 2020-087A = NORAD 47097
1 47097U 20087A   23009.99919926 -005PSSC4 +0025Z5EJ +001FHHCYH 18162
2 47097                          -0004DMVQ -0004LCO9 -0001YBKL     00

# Worst residual: 11.18 km
# MJD 59955.000000 (2023 Jan 11  0:00)
Chang'e 5 = 2020-087A = NORAD 47097
1 47097U 20087A   23010.99919926 -006LQK2Q +0011MJAD +000XY5OQH 18167
2 47097                          -00030YHW -0004P940 -00023101     09

# Worst residual: 18.19 km
# MJD 59956.000000 (2023 Jan 12  0:00)
Chang'e 5 = 2020-087A = NORAD 47097
1 47097U 20087A   23011.99919926 -0076CZ7S -0002L0ZY +000FSYF7H 18163
2 47097                          -0001RFXQ -0004KLZW -00023KTY     02

# Worst residual: 39.46 km
# MJD 59957.000000 (2023 Jan 13  0:00)
Chang'e 5 = 2020-087A = NORAD 47097
1 47097U 20087A   23012.99919926 -007GEL17 -0014VOB4 -000231CMH 18166
2 47097                          -0000KKCO -00049LR3 -000212GS     03

# Worst residual: 61.94 km
# MJD 59958.000000 (2023 Jan 14  0:00)
Chang'e 5 = 2020-087A = NORAD 47097
1 47097U 20087A   23013.99919926 -007GAHGA -0023Y3VM -000J3YKEH 18165
2 47097                          +0000LK6R -0003U1CF -0001WL5A     07

# Worst residual: 75.40 km
# MJD 59959.000000 (2023 Jan 15  0:00)
Chang'e 5 = 2020-087A = NORAD 47097
1 47097U 20087A   23014.99919926 -007602SN -002YYRFY -000YYCWDH 18165
2 47097                          +0001S8JE -0003CB30 -0001RFK2     09

# Worst residual: 47.50 km
# MJD 59960.000000 (2023 Jan 16  0:00)
Chang'e 5 = 2020-087A = NORAD 47097
1 47097U 20087A   23015.99919926 -006LJ5U7 -003PO8VE -001DJTRAH 18169
2 47097                          +0002XYOB -0002U5T4 -0001M49X     08

# Worst residual: 26.08 km
# MJD 59961.000000 (2023 Jan 17  0:00)
Chang'e 5 = 2020-087A = NORAD 47097
1 47097U 20087A   23016.99919926 -005RDRAS -004BUUQG -001QQX1MH 18161
2 47097                          +00040QTD -0002A56U -0001FI44     07

# Worst residual: 17.78 km
# MJD 59962.000000 (2023 Jan 18  0:00)
Chang'e 5 = 2020-087A = NORAD 47097
1 47097U 20087A   23017.99919926 -004OAWJH -004SPSZO -00221MTVH 18164
2 47097                          +00050F2V -0001LB8K -0001623W     09

# Worst residual: 14.80 km
# MJD 59963.000000 (2023 Jan 19  0:00)
Chang'e 5 = 2020-087A = NORAD 47097
1 47097U 20087A   23018.99919926 -003D1B85 -0052RAOA -002ALNFXH 18168
2 47097                          +0005WU7F -0000OV4F -0000SFAX     07

# Worst residual: 13.39 km
# MJD 59964.000000 (2023 Jan 20  0:00)
Chang'e 5 = 2020-087A = NORAD 47097
1 47097U 20087A   23019.99919926 -001UJQVW -0053TE0L -002F8EOJH 18162
2 47097                          +0006O1J7 +0000I0W7 -0000931K     04

# Worst residual: 12.29 km
# MJD 59965.000000 (2023 Jan 21  0:00)
Chang'e 5 = 2020-087A = NORAD 47097
1 47097U 20087A   23020.99919926 -0006NA62 -004T2J3I -002EDIRZH 18160
2 47097                          +00074ORA +00021RNT +0000HJUT     03

# Worst residual: 10.88 km
# MJD 59966.000000 (2023 Jan 22  0:00)
Chang'e 5 = 2020-087A = NORAD 47097
1 47097U 20087A   23021.99919926 +001J0LK2 -0043G330 -002675H0H 18161
2 47097                          +00070NXQ +0003X51V +0001FMSI     06

# Worst residual: 13.04 km
# MJD 59967.000000 (2023 Jan 23  0:00)
Chang'e 5 = 2020-087A = NORAD 47097
1 47097U 20087A   23022.99919926 +0034135H -002XD3Y0 -001PEN6DH 18164
2 47097                          +00060K0L +0005RD7L +0002FOJV     09

# Worst residual: 19.46 km
# MJD 59968.000000 (2023 Jan 24  0:00)
Chang'e 5 = 2020-087A = NORAD 47097
1 47097U 20087A   23023.99919926 +004CFG6P -001E4H94 -00110B8DH 18165
2 47097                          +00045KB8 +0006UKBV +00034RF9     08

# Worst residual: 15.65 km
# MJD 59969.000000 (2023 Jan 25  0:00)
Chang'e 5 = 2020-087A = NORAD 47097
1 47097U 20087A   23024.99919926 +00531M1I +0009YCGG -0008QIK1H 18165
2 47097                          +00020W55 +0006WTR5 +0003C4W9     08

